[{"OBJECT_NAME":"YAOGAN-16 01C","OBJECT_ID":"2012-066C","EPOCH":"2026-03-09T23:09:27.258912","MEAN_MOTION":13.45493604,"ECCENTRICITY":0.04277831,"INCLINATION":63.3553,"RA_OF_ASC_NODE":185.7575,"ARG_OF_PERICENTER":25.6135,"MEAN_ANOMALY":336.542,"EPHEMERIS_TYPE":0,"CLASSIFICATION_TYPE":"U","NORAD_CAT_ID":39013,"ELEMENT_SET_NO":999,"REV_AT_EPOCH":65278,"BSTAR":9.6966797e-5,"MEAN_MOTION_DOT":9.0e-8,"MEAN_MOTION_DDOT":0},{"OBJECT_NAME":"CZ-6A DEB","OBJECT_ID":"2022-151AHF","EPOCH":"2026-03-08T17:09:55.552320","MEAN_MOTION":14.03298931,"ECCENTRICITY":0.01038313,"INCLINATION":98.9638,"RA_OF_ASC_NODE":71.2004,"ARG_OF_PERICENTER":347.7905,"MEAN_ANOMALY":12.0748,"EPHEMERIS_TYPE":0,"CLASSIFICATION_TYPE":"U","NORAD_CAT_ID":56679,"ELEMENT_SET_NO":999,"REV_AT_EPOCH":14705,"BSTAR":0.00091184899,"MEAN_MOTION_DOT":1.449e-5,"MEAN_MOTION_DDOT":0}]
